0 FENGYUN 1C DEB
1 31449U 99025BUM 13281.70448852  .00000527  00000-0  19865-3 0  4440
2 31449 098.6763 243.5952 0154896 346.8130 012.9109 14.29278331340425
0 FENGYUN 1C DEB
1 31449U 99025BUM 13284.08462065  .00000544  00000-0  20456-3 0  4454
2 31449 098.6759 245.9647 0155224 339.8143 019.6970 14.29281635340767
0 FENGYUN 1C DEB
1 31449U 99025BUM 13286.11472958  .00000572  00000-0  21431-3 0  4468
2 31449 098.6770 247.9899 0155017 334.0461 025.3031 14.29284888341059
0 FENGYUN 1C DEB
1 31449U 99025BUM 13289.12488945  .00000607  00000-0  22633-3 0  4470
2 31449 098.6771 250.9880 0154517 325.2642 033.8701 14.29289657341485
0 FENGYUN 1C DEB
1 31449U 99025BUM 13291.08498166  .00000642  00000-0  23857-3 0  4483
2 31449 098.6762 252.9370 0154346 319.4866 039.4947 14.29293526341769
0 FENGYUN 1C DEB
1 31449U 99025BUM 13293.11508279  .00000673  00000-0  24913-3 0  4495
2 31449 098.6773 254.9642 0154879 313.7318 045.1274 14.29297271342056
0 FENGYUN 1C DEB
1 31449U 99025BUM 13295.14517856  .00000699  00000-0  25825-3 0  4504
2 31449 098.6772 256.9855 0154310 307.7869 050.9553 14.29300941342342
